SCD 1                   
1 22490U 93009B   26196.95283149  .00000293  00000+0  29432-4 0  9990
2 22490  24.9705  29.9632 0042081  82.5333  35.7433 14.46128812765286
TECHSAT 1B (GO-32)      
1 25397U 98043D   26197.49615008  .00000006  00000+0  22628-4 0  9997
2 25397  99.0086 190.9963 0002221 112.7414 247.3999 14.24433518455501
SCD 2                   
1 25504U 98060A   26197.49977347  .00000267  00000+0  23859-4 0  9999
2 25504  24.9943 251.3914 0016998  73.1687 310.2431 14.45535062464574
DLR-TUBSAT              
1 25757U 99029B   26197.50283547 -.00000001  00000+0  11641-4 0  9992
2 25757  98.6711 193.9737 0012980 260.3693  99.6035 14.52433414437500
TERRA                   
1 25994U 99068A   26197.62064881  .00000168  00000+0  43069-4 0  9991
2 25994  97.9441 245.9975 0003471 119.7743  41.0394 14.61124329413904
MAROC-TUBSAT            
1 27004U 01056D   26197.49128579 -.00000042  00000+0  46412-5 0  9993
2 27004  99.8099  14.9053 0020583  68.8803 305.7155 13.70263591230202
AQUA                    
1 27424U 02022A   26197.28834417  .00000341  00000+0  77532-4 0  9992
2 27424  98.4296 167.1566 0000983 113.3067  21.1629 14.62197882287525
SHIYAN-1 (SY-1)         
1 28220U 04012A   26197.46965040  .00006977  00000+0  21159-3 0  9999
2 28220  97.8686 277.4551 0004113 268.4901  91.5870 15.34471508215589
AURA                    
1 28376U 04026A   26197.56530289  .00000343  00000+0  79047-4 0  9991
2 28376  98.3431 154.2652 0001340  93.5991 266.5363 14.61368875170508
IRS-P5 (CARTOSAT-1)     
1 28649U 05017A   26197.33688534  .00000728  00000+0  78668-4 0  9992
2 28649  97.5306 219.0791 0001347  50.6963 309.4375 14.91118645148165
SINAH 1                 
1 28893U 05043D   26197.64488765  .00000127  00000+0  33471-4 0  9996
2 28893  98.2896 332.1461 0014497 178.9778 181.1457 14.64175975104838
RESURS-DK 1             
1 29228U 06021A   26197.45020317  .00000852  00000+0  53811-4 0  9995
2 29228  69.9306 263.7966 0007178 269.6714  90.3630 15.13321208107000
ARIRANG-2 (KOMPSAT-2)   
1 29268U 06031A   26197.60608014 -.00000081  00000+0 -66422-5 0  9992
2 29268  97.8307  20.6299 0014129 346.2633 104.8946 14.64675518 65780
LAPAN-TUBSAT            
1 29709U 07001A   26197.61344900  .00000173  00000+0  26418-4 0  9992
2 29709  98.1345 197.5026 0013567  89.6809 270.5960 14.85976054 55526
HAIYANG-1B              
1 31113U 07010A   26197.44129807  .00000024  00000+0  24828-4 0  9990
2 31113  98.3515 178.1545 0014673 112.3236 247.9505 14.31033508  4826
COSMO-SKYMED 1          
1 31598U 07023A   26197.60884359  .00001464  00000+0  13174-3 0  9999
2 31598  97.8847  29.7137 0001542 102.4995 257.6399 14.97223628 34194
TERRASAR-X              
1 31698U 07026A   26188.47915537  .00000240  00000+0  14624-4 0  9994
2 31698  97.4461 195.8972 0001878  86.9540 273.1909 15.19153986 56300
WORLDVIEW-1 (WV-1)      
1 32060U 07041A   26197.56776151  .00003163  00000+0  13131-3 0  9990
2 32060  97.3907 316.8997 0001657 199.7984 160.3190 15.24567714 47358
YAOGAN-3                
1 32289U 07055A   26197.59207110  .00001016  00000+0  10870-3 0  9997
2 32289  97.8142 227.1795 0001602  76.5076 283.6321 14.90886740 10250
COSMO-SKYMED 2          
1 32376U 07059A   26197.59563993  .00000146  00000+0  24865-4 0  9995
2 32376  97.8895  20.7682 0001462  93.8186 266.3195 14.82151136  6361
RADARSAT-2              
1 32382U 07061A   26197.56551804  .00000168  00000+0  82030-4 0  9992
2 32382  98.5777 204.0788 0001311  83.8394 276.2938 14.29983975970159
CARTOSAT-2A             
1 32783U 08021A   26197.60635498  .00000059  00000+0  14676-4 0  9991
2 32783  97.7616 245.3089 0012406  22.8348 337.3413 14.79276750983150
HUANJING 1A (HJ-1A)     
1 33320U 08041A   26197.63147074  .00000144  00000+0  23395-4 0  9995
2 33320  97.6693 182.3344 0020215  45.1996 315.0859 14.84048571962776
HUANJING 1B (HJ-1B)     
1 33321U 08041B   26197.61407245  .00000521  00000+0  68987-4 0  9998
2 33321  97.6531 185.4001 0038004  86.7497 273.8064 14.83367568962772
GEOEYE 1                
1 33331U 08042A   26197.59592138  .00000163  00000+0  39683-4 0  9996
2 33331  98.1327 271.1754 0003847 341.9155  18.1911 14.64649962954451
THEOS                   
1 33396U 08049A   26197.63071376  .00000436  00000+0  22415-3 0  9992
2 33396  98.5557 253.9561 0001096  87.5074 272.6229 14.20138509922144
COSMO-SKYMED 3          
1 33412U 08054A   26197.62333976  .00002352  00000+0  16055-3 0  9995
2 33412  97.8244  56.6804 0015888 161.9546 198.2249 15.07121050961373
YAOGAN-4                
1 33446U 08061A   26197.58034355  .00000439  00000+0  60266-4 0  9992
2 33446  97.9303 130.8748 0013699 341.0034  19.0667 14.83252632950028
GOSAT (IBUKI)           
1 33492U 09002A   26197.32033051  .00000277  00000+0  57400-4 0  9999
2 33492  98.0914 308.0397 0001139  88.5584 271.5751 14.67540354935730
DEIMOS-1                
1 35681U 09041A   26197.62299519  .00000448  00000+0  73269-4 0  9991
2 35681  97.7431 353.5793 0002789  91.1926 268.9604 14.75265870911220
