OBJECT_NAME,OBJECT_ID,EPOCH,MEAN_MOTION,ECCENTRICITY,INCLINATION,RA_OF_ASC_NODE,ARG_OF_PERICENTER,MEAN_ANOMALY,EPHEMERIS_TYPE,CLASSIFICATION_TYPE,NORAD_CAT_ID,ELEMENT_SET_NO,REV_AT_EPOCH,BSTAR,MEAN_MOTION_DOT,MEAN_MOTION_DDOT
SCD 1,1993-009B,2026-07-15T22:52:04.640736,14.46128812,.0042081,24.9705,29.9632,82.5333,35.7433,0,U,22490,999,76528,.29432E-4,.293E-5,0
TECHSAT 1B (GO-32),1998-043D,2026-07-16T11:54:27.366912,14.24433518,.00022216,99.0086,190.9963,112.7414,247.3999,0,U,25397,999,45550,.22627718E-4,.6E-7,0
SCD 2,1998-060A,2026-07-16T11:59:40.427808,14.45535062,.00169986,24.9943,251.3914,73.1687,310.2431,0,U,25504,999,46457,.23858627E-4,.267E-5,0
DLR-TUBSAT,1999-029B,2026-07-16T12:04:04.984608,14.52433414,.00129806,98.6711,193.9737,260.3693,99.6035,0,U,25757,999,43750,.1164088E-4,-.1E-7,0
TERRA,1999-068A,2026-07-16T14:53:44.057184,14.61124329,.0003471,97.9441,245.9975,119.7743,41.0394,0,U,25994,999,41390,.43068609E-4,.168E-5,0
MAROC-TUBSAT,2001-056D,2026-07-16T11:47:27.092256,13.70263591,.00205831,99.8099,14.9053,68.8803,305.7155,0,U,27004,999,23020,.4641247E-5,-.42E-6,0
AQUA,2002-022A,2026-07-16T06:55:12.936288,14.62197882,.00009832,98.4296,167.1566,113.3067,21.1629,0,U,27424,999,28752,.7753175E-4,.341E-5,0
SHIYAN-1 (SY-1),2004-012A,2026-07-16T11:16:17.794560,15.34471508,.00041132,97.8686,277.4551,268.4901,91.5870,0,U,28220,999,21558,.21159483E-3,.6977E-4,0
AURA,2004-026A,2026-07-16T13:34:02.169696,14.61368875,.00013409,98.3431,154.2652,93.5991,266.5363,0,U,28376,999,17050,.79046611E-4,.343E-5,0
IRS-P5 (CARTOSAT-1),2005-017A,2026-07-16T08:05:06.893376,14.91118645,.0001347,97.5306,219.0791,50.6963,309.4375,0,U,28649,999,14816,.78668446E-4,.728E-5,0
SINAH 1,2005-043D,2026-07-16T15:28:38.292960,14.64175975,.00144974,98.2896,332.1461,178.9778,181.1457,0,U,28893,999,10483,.33471377E-4,.127E-5,0
RESURS-DK 1,2006-021A,2026-07-16T10:48:17.553888,15.13321208,.00071784,69.9306,263.7966,269.6714,90.3630,0,U,29228,999,10700,.53811404E-4,.852E-5,0
ARIRANG-2 (KOMPSAT-2),2006-031A,2026-07-16T14:32:45.324096,14.64675518,.00141293,97.8307,20.6299,346.2633,104.8946,0,U,29268,999,6578,-.6642166E-5,-.81E-6,0
LAPAN-TUBSAT,2007-001A,2026-07-16T14:43:21.993600,14.85976054,.00135671,98.1345,197.5026,89.6809,270.5960,0,U,29709,999,5552,.26417773E-4,.173E-5,0
HAIYANG-1B,2007-010A,2026-07-16T10:35:28.153248,14.31033508,.00146731,98.3515,178.1545,112.3236,247.9505,0,U,31113,999,482,.2482781E-4,.24E-6,0
COSMO-SKYMED 1,2007-023A,2026-07-16T14:36:44.086176,14.97223628,.00015424,97.8847,29.7137,102.4995,257.6399,0,U,31598,999,3419,.13173597E-3,.1464E-4,0
TERRASAR-X,2007-026A,2026-07-07T11:29:59.023968,15.19153986,.0001878,97.4461,195.8972,86.9540,273.1909,0,U,31698,999,5630,.14624E-4,.24E-5,0
WORLDVIEW-1 (WV-1),2007-041A,2026-07-16T13:37:34.594464,15.24567714,.0001657,97.3907,316.8997,199.7984,160.3190,0,U,32060,999,4735,.13130774E-3,.3163E-4,0
YAOGAN-3,2007-055A,2026-07-16T14:12:34.943040,14.90886740,.00016022,97.8142,227.1795,76.5076,283.6321,0,U,32289,999,1025,.10869726E-3,.1016E-4,0
COSMO-SKYMED 2,2007-059A,2026-07-16T14:17:43.289952,14.82151136,.00014627,97.8895,20.7682,93.8186,266.3195,0,U,32376,999,636,.24865325E-4,.146E-5,0
RADARSAT-2,2007-061A,2026-07-16T13:34:20.758656,14.29983975,.00013115,98.5777,204.0788,83.8394,276.2938,0,U,32382,999,97015,.82030372E-4,.168E-5,0
CARTOSAT-2A,2008-021A,2026-07-16T14:33:09.070272,14.79276750,.00124066,97.7616,245.3089,22.8348,337.3413,0,U,32783,999,98315,.14675551E-4,.59E-6,0
HUANJING 1A (HJ-1A),2008-041A,2026-07-16T15:09:19.071936,14.84048571,.00202153,97.6693,182.3344,45.1996,315.0859,0,U,33320,999,96277,.23394803E-4,.144E-5,0
HUANJING 1B (HJ-1B),2008-041B,2026-07-16T14:44:15.859680,14.83367568,.00380043,97.6531,185.4001,86.7497,273.8064,0,U,33321,999,96277,.68987237E-4,.521E-5,0
GEOEYE 1,2008-042A,2026-07-16T14:18:07.607232,14.64649962,.0003847,98.1327,271.1754,341.9155,18.1911,0,U,33331,999,95445,.39683261E-4,.163E-5,0
THEOS,2008-049A,2026-07-16T15:08:13.668864,14.20138509,.00010962,98.5557,253.9561,87.5074,272.6229,0,U,33396,999,92214,.22414776E-3,.436E-5,0
COSMO-SKYMED 3,2008-054A,2026-07-16T14:57:36.555264,15.07121050,.00158884,97.8244,56.6804,161.9546,198.2249,0,U,33412,999,96137,.16055203E-3,.2352E-4,0
YAOGAN-4,2008-061A,2026-07-16T13:55:41.682720,14.83252632,.00136994,97.9303,130.8748,341.0034,19.0667,0,U,33446,999,95002,.60266469E-4,.439E-5,0
GOSAT (IBUKI),2009-002A,2026-07-16T07:41:16.556064,14.67540354,.00011393,98.0914,308.0397,88.5584,271.5751,0,U,33492,999,93573,.57399776E-4,.277E-5,0
DEIMOS-1,2009-041A,2026-07-16T14:57:06.784416,14.75265870,.00027898,97.7431,353.5793,91.1926,268.9604,0,U,35681,999,91122,.73269134E-4,.448E-5,0
